ONEWEB-0615             
1 54676U 22166AL  25321.37710787 -.00000169  00000+0 -44048-3 0  9998
2 54676  87.9188 286.2397 0001844  83.9599 276.1745 13.21824933143464
ONEWEB-0655             
1 54677U 22166AM  25321.42811031 -.00000387  00000+0 -96945-3 0  9994
2 54677  87.9184 286.2344 0001887  92.3687 267.7663 13.21825930143465
ONEWEB-0659             
1 54678U 22166AN  25321.44457833 -.00000010  00000+0 -56012-4 0  9998
2 54678  87.9186 286.2310 0001884  80.5304 279.6043 13.21828359143555
ONEWEB-0685             
1 54679U 22166AP  25321.44520832  .00000022  00000+0  21006-4 0  9995
2 54679  87.9183 286.2271 0001644  88.3768 271.7554 13.21833128143441
ONEWEB-0712             
1 54680U 22166AQ  25321.40847453  .00000082  00000+0  18035-3 0  9997
2 54680  87.9026 270.9442 0002157  94.4592 265.6786 13.16593218144191
ONEWEB-0714             
1 54681U 22166AR  25321.37546126 -.00000146  00000+0 -38527-3 0  9998
2 54681  87.9185 286.2347 0001788  89.6265 270.5074 13.21824939143551
ONEWEB-0532             
1 55140U 23004A   25321.47516258 -.00000235  00000+0 -63857-3 0  9998
2 55140  87.9144  47.9572 0001298  97.8850 262.2429 13.17648132139704
ONEWEB-0533             
1 55141U 23004B   25321.21316287 -.00000003  00000+0 -42654-4 0  9997
2 55141  87.8972  32.7744 0001762 108.8936 251.2383 13.12440744140253
ONEWEB-0541             
1 55142U 23004C   25321.30615763 -.00000358  00000+0 -10465-2 0  9995
2 55142  87.8870  63.2404 0001593  98.2838 261.8471 13.11414876138177
ONEWEB-0543             
1 55143U 23004D   25321.39249786  .00000052  00000+0  99933-4 0  9991
2 55143  87.9196  17.5665 0002042 103.8249 256.3111 13.18688245141781
ONEWEB-0544             
1 55144U 23004E   25321.23417008  .00000033  00000+0  51575-4 0  9998
2 55144  87.9196  17.5874 0002037  95.8998 264.2366 13.18691163141760
ONEWEB-0560             
1 55145U 23004F   25321.45517727  .00000002  00000+0 -27563-4 0  9999
2 55145  87.9203  17.5285 0002115  97.7163 262.4209 13.18688700141802
ONEWEB-0565             
1 55146U 23004G   25321.22094625 -.00000004  00000+0 -42166-4 0  9991
2 55146  87.9195  17.6241 0001924  83.5384 276.5967 13.18688583141762
ONEWEB-0567             
1 55147U 23004H   25321.21434816  .00000067  00000+0  13808-3 0  9998
2 55147  87.9203  17.5899 0002022  88.1175 272.0188 13.18688512141768
ONEWEB-0569             
1 55148U 23004J   25321.38676714 -.00000233  00000+0 -67277-3 0  9998
2 55148  87.9017   2.3045 0002668  85.1098 275.0335 13.13469459142371
ONEWEB-0570             
1 55149U 23004K   25321.43210103  .00000018  00000+0  13461-4 0  9997
2 55149  87.9201  17.5466 0001439  86.5959 273.5338 13.18685902141786
ONEWEB-0571             
1 55150U 23004L   25321.19787414 -.00000018  00000+0 -79166-4 0  9992
2 55150  87.9194  17.5939 0002540  71.2404 288.9004 13.18685516141763
