[{"OBJECT_NAME":"ONEWEB-0615","OBJECT_ID":"2022-166AL","EPOCH":"2025-11-17T09:03:02.119968","MEAN_MOTION":13.21824933,"ECCENTRICITY":0.0001844,"INCLINATION":87.9188,"RA_OF_ASC_NODE":286.2397,"ARG_OF_PERICENTER":83.9599,"MEAN_ANOMALY":276.1745,"EPHEMERIS_TYPE":0,"CLASSIFICATION_TYPE":"U","NORAD_CAT_ID":54676,"ELEMENT_SET_NO":999,"REV_AT_EPOCH":14346,"BSTAR":-0.00044048,"MEAN_MOTION_DOT":-1.69e-6,"MEAN_MOTION_DDOT":0},{"OBJECT_NAME":"ONEWEB-0655","OBJECT_ID":"2022-166AM","EPOCH":"2025-11-17T10:16:28.730784","MEAN_MOTION":13.2182593,"ECCENTRICITY":0.0001887,"INCLINATION":87.9184,"RA_OF_ASC_NODE":286.2344,"ARG_OF_PERICENTER":92.3687,"MEAN_ANOMALY":267.7663,"EPHEMERIS_TYPE":0,"CLASSIFICATION_TYPE":"U","NORAD_CAT_ID":54677,"ELEMENT_SET_NO":999,"REV_AT_EPOCH":14346,"BSTAR":-0.00096945,"MEAN_MOTION_DOT":-3.87e-6,"MEAN_MOTION_DDOT":0},{"OBJECT_NAME":"ONEWEB-0659","OBJECT_ID":"2022-166AN","EPOCH":"2025-11-17T10:40:11.567712","MEAN_MOTION":13.21828359,"ECCENTRICITY":0.0001884,"INCLINATION":87.9186,"RA_OF_ASC_NODE":286.231,"ARG_OF_PERICENTER":80.5304,"MEAN_ANOMALY":279.6043,"EPHEMERIS_TYPE":0,"CLASSIFICATION_TYPE":"U","NORAD_CAT_ID":54678,"ELEMENT_SET_NO":999,"REV_AT_EPOCH":14355,"BSTAR":-5.6012e-5,"MEAN_MOTION_DOT":-1.0e-7,"MEAN_MOTION_DDOT":0},{"OBJECT_NAME":"ONEWEB-0685","OBJECT_ID":"2022-166AP","EPOCH":"2025-11-17T10:41:05.998848","MEAN_MOTION":13.21833128,"ECCENTRICITY":0.0001644,"INCLINATION":87.9183,"RA_OF_ASC_NODE":286.2271,"ARG_OF_PERICENTER":88.3768,"MEAN_ANOMALY":271.7554,"EPHEMERIS_TYPE":0,"CLASSIFICATION_TYPE":"U","NORAD_CAT_ID":54679,"ELEMENT_SET_NO":999,"REV_AT_EPOCH":14344,"BSTAR":2.1006e-5,"MEAN_MOTION_DOT":2.2e-7,"MEAN_MOTION_DDOT":0},{"OBJECT_NAME":"ONEWEB-0712","OBJECT_ID":"2022-166AQ","EPOCH":"2025-11-17T09:48:12.199392","MEAN_MOTION":13.16593218,"ECCENTRICITY":0.0002157,"INCLINATION":87.9026,"RA_OF_ASC_NODE":270.9442,"ARG_OF_PERICENTER":94.4592,"MEAN_ANOMALY":265.6786,"EPHEMERIS_TYPE":0,"CLASSIFICATION_TYPE":"U","NORAD_CAT_ID":54680,"ELEMENT_SET_NO":999,"REV_AT_EPOCH":14419,"BSTAR":0.00018035,"MEAN_MOTION_DOT":8.2e-7,"MEAN_MOTION_DDOT":0},{"OBJECT_NAME":"ONEWEB-0714","OBJECT_ID":"2022-166AR","EPOCH":"2025-11-17T09:00:39.852864","MEAN_MOTION":13.21824939,"ECCENTRICITY":0.0001788,"INCLINATION":87.9185,"RA_OF_ASC_NODE":286.2347,"ARG_OF_PERICENTER":89.6265,"MEAN_ANOMALY":270.5074,"EPHEMERIS_TYPE":0,"CLASSIFICATION_TYPE":"U","NORAD_CAT_ID":54681,"ELEMENT_SET_NO":999,"REV_AT_EPOCH":14355,"BSTAR":-0.00038527,"MEAN_MOTION_DOT":-1.46e-6,"MEAN_MOTION_DDOT":0},{"OBJECT_NAME":"ONEWEB-0532","OBJECT_ID":"2023-004A","EPOCH":"2025-11-17T11:24:14.046912","MEAN_MOTION":13.17648132,"ECCENTRICITY":0.0001298,"INCLINATION":87.9144,"RA_OF_ASC_NODE":47.9572,"ARG_OF_PERICENTER":97.885,"MEAN_ANOMALY":262.2429,"EPHEMERIS_TYPE":0,"CLASSIFICATION_TYPE":"U","NORAD_CAT_ID":55140,"ELEMENT_SET_NO":999,"REV_AT_EPOCH":13970,"BSTAR":-0.00063857,"MEAN_MOTION_DOT":-2.35e-6,"MEAN_MOTION_DDOT":0},{"OBJECT_NAME":"ONEWEB-0533","OBJECT_ID":"2023-004B","EPOCH":"2025-11-17T05:06:57.271968","MEAN_MOTION":13.12440744,"ECCENTRICITY":0.00017622,"INCLINATION":87.8972,"RA_OF_ASC_NODE":32.7744,"ARG_OF_PERICENTER":108.8936,"MEAN_ANOMALY":251.2383,"EPHEMERIS_TYPE":0,"CLASSIFICATION_TYPE":"U","NORAD_CAT_ID":55141,"ELEMENT_SET_NO":999,"REV_AT_EPOCH":14025,"BSTAR":-4.2654231e-5,"MEAN_MOTION_DOT":-3.0e-8,"MEAN_MOTION_DDOT":0},{"OBJECT_NAME":"ONEWEB-0541","OBJECT_ID":"2023-004C","EPOCH":"2025-11-17T07:20:52.019232","MEAN_MOTION":13.11414876,"ECCENTRICITY":0.00015937,"INCLINATION":87.887,"RA_OF_ASC_NODE":63.2404,"ARG_OF_PERICENTER":98.2838,"MEAN_ANOMALY":261.8471,"EPHEMERIS_TYPE":0,"CLASSIFICATION_TYPE":"U","NORAD_CAT_ID":55142,"ELEMENT_SET_NO":999,"REV_AT_EPOCH":13817,"BSTAR":-0.001046499,"MEAN_MOTION_DOT":-3.58e-6,"MEAN_MOTION_DDOT":0},{"OBJECT_NAME":"ONEWEB-0543","OBJECT_ID":"2023-004D","EPOCH":"2025-11-17T09:25:11.815104","MEAN_MOTION":13.18688245,"ECCENTRICITY":0.0002042,"INCLINATION":87.9196,"RA_OF_ASC_NODE":17.5665,"ARG_OF_PERICENTER":103.8249,"MEAN_ANOMALY":256.3111,"EPHEMERIS_TYPE":0,"CLASSIFICATION_TYPE":"U","NORAD_CAT_ID":55143,"ELEMENT_SET_NO":999,"REV_AT_EPOCH":14178,"BSTAR":9.9933e-5,"MEAN_MOTION_DOT":5.2e-7,"MEAN_MOTION_DDOT":0},{"OBJECT_NAME":"ONEWEB-0544","OBJECT_ID":"2023-004E","EPOCH":"2025-11-17T05:37:12.294912","MEAN_MOTION":13.18691163,"ECCENTRICITY":0.00020375,"INCLINATION":87.9196,"RA_OF_ASC_NODE":17.5874,"ARG_OF_PERICENTER":95.8998,"MEAN_ANOMALY":264.2366,"EPHEMERIS_TYPE":0,"CLASSIFICATION_TYPE":"U","NORAD_CAT_ID":55144,"ELEMENT_SET_NO":999,"REV_AT_EPOCH":14176,"BSTAR":5.1574826e-5,"MEAN_MOTION_DOT":3.3e-7,"MEAN_MOTION_DDOT":0},{"OBJECT_NAME":"ONEWEB-0560","OBJECT_ID":"2023-004F","EPOCH":"2025-11-17T10:55:27.316128","MEAN_MOTION":13.186887,"ECCENTRICITY":0.0002115,"INCLINATION":87.9203,"RA_OF_ASC_NODE":17.5285,"ARG_OF_PERICENTER":97.7163,"MEAN_ANOMALY":262.4209,"EPHEMERIS_TYPE":0,"CLASSIFICATION_TYPE":"U","NORAD_CAT_ID":55145,"ELEMENT_SET_NO":999,"REV_AT_EPOCH":14180,"BSTAR":-2.7563e-5,"MEAN_MOTION_DOT":2.0e-8,"MEAN_MOTION_DDOT":0},{"OBJECT_NAME":"ONEWEB-0565","OBJECT_ID":"2023-004G","EPOCH":"2025-11-17T05:18:09.756000","MEAN_MOTION":13.18688583,"ECCENTRICITY":0.00019242,"INCLINATION":87.9195,"RA_OF_ASC_NODE":17.6241,"ARG_OF_PERICENTER":83.5384,"MEAN_ANOMALY":276.5967,"EPHEMERIS_TYPE":0,"CLASSIFICATION_TYPE":"U","NORAD_CAT_ID":55146,"ELEMENT_SET_NO":999,"REV_AT_EPOCH":14176,"BSTAR":-4.2166032e-5,"MEAN_MOTION_DOT":-4.0e-8,"MEAN_MOTION_DDOT":0},{"OBJECT_NAME":"ONEWEB-0567","OBJECT_ID":"2023-004H","EPOCH":"2025-11-17T05:08:39.681024","MEAN_MOTION":13.18688512,"ECCENTRICITY":0.00020223,"INCLINATION":87.9203,"RA_OF_ASC_NODE":17.5899,"ARG_OF_PERICENTER":88.1175,"MEAN_ANOMALY":272.0188,"EPHEMERIS_TYPE":0,"CLASSIFICATION_TYPE":"U","NORAD_CAT_ID":55147,"ELEMENT_SET_NO":999,"REV_AT_EPOCH":14176,"BSTAR":0.00013807763,"MEAN_MOTION_DOT":6.7e-7,"MEAN_MOTION_DDOT":0},{"OBJECT_NAME":"ONEWEB-0569","OBJECT_ID":"2023-004J","EPOCH":"2025-11-17T09:16:56.680896","MEAN_MOTION":13.13469459,"ECCENTRICITY":0.0002668,"INCLINATION":87.9017,"RA_OF_ASC_NODE":2.3045,"ARG_OF_PERICENTER":85.1098,"MEAN_ANOMALY":275.0335,"EPHEMERIS_TYPE":0,"CLASSIFICATION_TYPE":"U","NORAD_CAT_ID":55148,"ELEMENT_SET_NO":999,"REV_AT_EPOCH":14237,"BSTAR":-0.00067277,"MEAN_MOTION_DOT":-2.33e-6,"MEAN_MOTION_DDOT":0},{"OBJECT_NAME":"ONEWEB-0570","OBJECT_ID":"2023-004K","EPOCH":"2025-11-17T10:22:13.528992","MEAN_MOTION":13.18685902,"ECCENTRICITY":0.0001439,"INCLINATION":87.9201,"RA_OF_ASC_NODE":17.5466,"ARG_OF_PERICENTER":86.5959,"MEAN_ANOMALY":273.5338,"EPHEMERIS_TYPE":0,"CLASSIFICATION_TYPE":"U","NORAD_CAT_ID":55149,"ELEMENT_SET_NO":999,"REV_AT_EPOCH":14178,"BSTAR":1.3461e-5,"MEAN_MOTION_DOT":1.8e-7,"MEAN_MOTION_DDOT":0},{"OBJECT_NAME":"ONEWEB-0571","OBJECT_ID":"2023-004L","EPOCH":"2025-11-17T04:44:56.325696","MEAN_MOTION":13.18685516,"ECCENTRICITY":0.00025407,"INCLINATION":87.9194,"RA_OF_ASC_NODE":17.5939,"ARG_OF_PERICENTER":71.2404,"MEAN_ANOMALY":288.9004,"EPHEMERIS_TYPE":0,"CLASSIFICATION_TYPE":"U","NORAD_CAT_ID":55150,"ELEMENT_SET_NO":999,"REV_AT_EPOCH":14176,"BSTAR":-7.9165971e-5,"MEAN_MOTION_DOT":-1.8e-7,"MEAN_MOTION_DDOT":0}]
